NORAD_CAT_ID,OBJECT_NAME,OBJECT_TYPE,EPOCH,MEAN_MOTION,ECCENTRICITY,INCLINATION,RA_OF_ASC_NODE,ARG_OF_PERICENTER,MEAN_ANOMALY,BSTAR,MEAN_MOTION_DOT,MEAN_MOTION_DDOT,TLE_LINE0,TLE_LINE1,TLE_LINE2,SEMIMAJOR_AXIS,PERIOD,APOGEE,PERIGEE,DECAYED
51974.0,STARLINK-3672,PAYLOAD,2023-06-02 12:40:00,15.05581816,0.0001284,53.0867,249.8465,88.2853,271.8283,6.2201e-05,6.27e-06,0.0,0 STARLINK-3672,1 51974U 22025U   23153.52778515  .00000627  00000-0  62201-4 0  9991,2 51974  53.0867 249.8465 0001284  88.2853 271.8283 15.05581816 68515,6927.857,95.644,550.612,548.833,0.0
51974.0,STARLINK-3672,PAYLOAD,2023-06-02 23:49:08,15.05587868,0.0001218,53.0856,247.7638,89.5095,270.6034,6.5656e-05,6.78e-06,0.0,0 STARLINK-3672,1 51974U 22025U   23153.99246068  .00000678  00000-0  65656-4 0  9998,2 51974  53.0856 247.7638 0001218  89.5095 270.6034 15.05587868 69673,6927.839,95.644,550.548,548.86,0.0
51974.0,STARLINK-3672,PAYLOAD,2023-06-03 12:33:50,15.05665739,0.0001346,53.0843,245.3835,72.6178,287.4958,-0.0011451,-0.00016961,0.0,0 STARLINK-3672,1 51974U 22025U   23154.52350360 -.00016961  00000-0 -11451-2 0  9995,2 51974  53.0843 245.3835 0001346  72.6178 287.4958 15.05665739 68662,6927.6,95.639,550.397,548.532,0.0
51974.0,STARLINK-3672,PAYLOAD,2023-06-04 01:18:36,15.05583585,0.0001298,53.0822,243.0081,78.7631,281.3503,0.00011756,1.434e-05,0.0,0 STARLINK-3672,1 51974U 22025U   23155.05458822  .00001434  00000-0  11756-3 0  9992,2 51974  53.0822 243.0081 0001298  78.7631 281.3503 15.05583585 69831,6927.852,95.644,550.616,548.818,0.0
51974.0,STARLINK-3672,PAYLOAD,2023-06-04 12:27:43,15.05628589,0.0001106,53.0819,240.9242,74.9257,285.1854,-0.00063152,-9.48e-05,0.0,0 STARLINK-3672,1 51974U 22025U   23155.51925467 -.00009480  00000-0 -63152-3 0  9995,2 51974  53.0819 240.9242 0001106  74.9257 285.1854 15.05628589 68814,6927.714,95.641,550.345,548.813,0.0
51974.0,STARLINK-3672,PAYLOAD,2023-06-04 15:38:55,15.05588268,0.0001286,53.0818,240.3293,80.7834,279.33,3.4503e-05,2.24e-06,0.0,0 STARLINK-3672,1 51974U 22025U   23155.65203153  .00000224  00000-0  34503-4 0  9995,2 51974  53.0818 240.3293 0001286  80.7834 279.3300 15.05588268 68830,6927.838,95.644,550.593,548.812,0.0
51974.0,STARLINK-3672,PAYLOAD,2023-06-05 02:48:03,15.05587835,0.0001203,53.0816,238.2475,86.0468,274.0658,6.6243e-05,6.86e-06,0.0,0 STARLINK-3672,1 51974U 22025U   23156.11671055  .00000686  00000-0  66243-4 0  9995,2 51974  53.0816 238.2475 0001203  86.0468 274.0658 15.05587835 69992,6927.839,95.644,550.537,548.87,0.0
51974.0,STARLINK-3672,PAYLOAD,2023-06-05 12:21:37,15.05582287,0.0001169,53.0814,236.462,88.7943,271.318,2.1876e-06,-2.47e-06,0.0,0 STARLINK-3672,1 51974U 22025U   23156.51501192 -.00000247  00000-0  21876-5 0  9991,2 51974  53.0814 236.4620 0001169  88.7943 271.3180 15.05582287 68962,6927.856,95.644,550.531,548.911,0.0
51974.0,STARLINK-3672,PAYLOAD,2023-06-06 10:39:53,15.05582545,0.0001211,53.0801,232.2975,92.3682,267.7445,5.3532e-05,5.01e-06,0.0,0 STARLINK-3672,1 51974U 22025U   23157.44437198  .00000501  00000-0  53532-4 0  9993,2 51974  53.0801 232.2975 0001211  92.3682 267.7445 15.05582545 69101,6927.855,95.644,550.559,548.881,0.0
51974.0,STARLINK-3672,PAYLOAD,2023-06-07 02:35:48,15.05586762,0.0001203,53.079,229.3232,89.7097,270.4029,5.8985e-05,5.8e-06,0.0,0 STARLINK-3672,1 51974U 22025U   23158.10819812  .00000580  00000-0  58985-4 0  9998,2 51974  53.0790 229.3232 0001203  89.7097 270.4029 15.05586762 70298,6927.842,95.644,550.541,548.874,0.0
51974.0,STARLINK-3672,PAYLOAD,2023-06-07 08:58:10,15.05589537,0.0001199,53.0788,228.1332,89.3752,270.7374,-2.4652e-05,-6.38e-06,0.0,0 STARLINK-3672,1 51974U 22025U   23158.37372941 -.00000638  00000-0 -24652-4 0  9994,2 51974  53.0788 228.1332 0001199  89.3752 270.7374 15.05589537 69243,6927.834,95.644,550.529,548.868,0.0
51974.0,STARLINK-3672,PAYLOAD,2023-06-07 21:42:54,15.05579705,0.0001147,53.0786,225.7536,90.5002,269.6118,7.8844e-05,8.7e-06,0.0,0 STARLINK-3672,1 51974U 22025U   23158.90479702  .00000870  00000-0  78844-4 0  9994,2 51974  53.0786 225.7536 0001147  90.5002 269.6118 15.05579705 69323,6927.864,95.644,550.523,548.934,0.0
51974.0,STARLINK-3672,PAYLOAD,2023-06-07 23:18:29,15.05579929,0.0001139,53.0782,225.4562,91.0148,269.0971,8.0134e-05,8.89e-06,0.0,0 STARLINK-3672,1 51974U 22025U   23158.97117974  .00000889  00000-0  80134-4 0  9996,2 51974  53.0782 225.4562 0001139  91.0148 269.0971 15.05579929 70425,6927.863,95.644,550.517,548.939,0.0
51974.0,STARLINK-3672,PAYLOAD,2023-06-08 13:38:48,15.05585655,0.0001164,53.0779,222.779,89.7295,270.3827,0.00010678,1.277e-05,0.0,0 STARLINK-3672,1 51974U 22025U   23159.56862157  .00001277  00000-0  10678-3 0  9999,2 51974  53.0779 222.7790 0001164  89.7295 270.3827 15.05585655 69425,6927.846,95.644,550.517,548.904,0.0
51974.0,STARLINK-3672,PAYLOAD,2023-06-08 23:12:21,15.05588663,0.0001183,53.0772,220.9954,87.4233,272.6891,9.0554e-05,1.041e-05,0.0,0 STARLINK-3672,1 51974U 22025U   23159.96691654  .00001041  00000-0  90554-4 0  9996,2 51974  53.0772 220.9954 0001183  87.4233 272.6891 15.05588663 70574,6927.836,95.644,550.521,548.882,0.0
51974.0,STARLINK-3672,PAYLOAD,2023-06-09 10:21:30,15.05574347,0.0001239,53.0754,218.908,63.1448,296.9667,0.00023399,3.131e-05,0.0,0 STARLINK-3672,1 51974U 22025U   23160.43160267  .00003131  00000-0  23399-3 0  9995,2 51974  53.0754 218.9080 0001239  63.1448 296.9667 15.05574347 69552,6927.88,95.645,550.604,548.887,0.0
51974.0,STARLINK-3672,PAYLOAD,2023-06-09 21:30:38,15.05584377,0.0001018,53.0756,216.8268,95.9462,264.1643,7.2639e-05,7.8e-06,0.0,0 STARLINK-3672,1 51974U 22025U   23160.89627812  .00000780  00000-0  72639-4 0  9998,2 51974  53.0756 216.8268 0001018  95.9462 264.1643 15.05584377 69626,6927.849,95.644,550.42,549.009,0.0
51974.0,STARLINK-3672,PAYLOAD,2023-06-10 02:17:24,15.05587304,0.0001085,53.0749,215.9356,98.3355,261.7757,9.0181e-05,1.035e-05,0.0,0 STARLINK-3672,1 51974U 22025U   23161.09542485  .00001035  00000-0  90181-4 0  9999,2 51974  53.0749 215.9356 0001085  98.3355 261.7757 15.05587304 70745,6927.84,95.644,550.457,548.954,0.0
51974.0,STARLINK-3672,PAYLOAD,2023-06-10 13:26:33,15.05585125,9.91e-05,53.0743,213.8544,91.3666,268.7437,3.0411e-05,1.64e-06,0.0,0 STARLINK-3672,1 51974U 22025U   23161.56010748  .00000164  00000-0  30411-4 0  9995,2 51974  53.0743 213.8544 0000991  91.3666 268.7437 15.05585125 69725,6927.847,95.644,550.399,549.026,0.0
51974.0,STARLINK-3672,PAYLOAD,2023-06-11 03:46:51,15.05610365,0.0001163,53.074,211.1768,86.3911,273.7211,-0.00028933,-4.495e-05,0.0,0 STARLINK-3672,1 51974U 22025U   23162.15754435 -.00004495  00000-0 -28933-3 0  9997,2 51974  53.0740 211.1768 0001163  86.3911 273.7211 15.05610365 70903,6927.77,95.642,550.44,548.829,0.0
51974.0,STARLINK-3672,PAYLOAD,2023-06-11 05:22:27,15.05587895,0.0001753,53.0722,210.8801,97.5558,262.563,-5.6269e-06,-3.61e-06,0.0,0 STARLINK-3672,1 51974U 22025U   23162.22393517 -.00000361  00000-0 -56269-5 0  9998,2 51974  53.0722 210.8801 0001753  97.5558 262.5630 15.05587895 70916,6927.839,95.644,550.918,548.489,0.0
51974.0,STARLINK-3672,PAYLOAD,2023-06-11 19:42:47,15.05580924,0.0001019,53.0722,208.2028,95.176,264.9346,6.9348e-05,7.31e-06,0.0,0 STARLINK-3672,1 51974U 22025U   23162.82138326  .00000731  00000-0  69348-4 0  9999,2 51974  53.0722 208.2028 0001019  95.1760 264.9346 15.05580924 69916,6927.86,95.644,550.431,549.019,0.0
51974.0,STARLINK-3672,PAYLOAD,2023-06-12 11:38:42,15.05570134,0.0001356,53.0715,205.2279,65.852,294.261,0.00028823,3.921e-05,0.0,0 STARLINK-3672,1 51974U 22025U   23163.48521621  .00003921  00000-0  28823-3 0  9992,2 51974  53.0715 205.2279 0001356  65.8520 294.2610 15.05570134 70010,6927.893,95.645,550.698,548.819,0.0
51974.0,STARLINK-3672,PAYLOAD,2023-06-12 19:36:39,15.05582554,0.0001091,53.0708,203.74,92.3938,267.7176,4.7068e-05,4.07e-06,0.0,0 STARLINK-3672,1 51974U 22025U   23163.81712625  .00000407  00000-0  47068-4 0  9994,2 51974  53.0708 203.7400 0001091  92.3938 267.7176 15.05582554 70061,6927.855,95.644,550.476,548.964,0.0
51974.0,STARLINK-3672,PAYLOAD,2023-06-13 11:32:34,15.05582793,0.0001124,53.07,200.7644,92.6943,267.4175,7.1914e-05,7.69e-06,0.0,0 STARLINK-3672,1 51974U 22025U   23164.48095369  .00000769  00000-0  71914-4 0  9995,2 51974  53.0700 200.7644 0001124  92.6943 267.4175 15.05582793 71259,6927.854,95.644,550.498,548.941,0.0
51974.0,STARLINK-3672,PAYLOAD,2023-06-13 19:30:31,15.05581985,0.0001075,53.0693,199.2763,90.4129,269.6983,6.4818e-05,6.65e-06,0.0,0 STARLINK-3672,1 51974U 22025U   23164.81286875  .00000665  00000-0  64818-4 0  9996,2 51974  53.0693 199.2763 0001075  90.4129 269.6983 15.05581985 70219,6927.857,95.644,550.467,548.977,0.0
51974.0,STARLINK-3672,PAYLOAD,2023-06-14 11:26:26,15.05580783,0.0001098,53.0686,196.301,90.4051,269.7064,5.0618e-05,4.58e-06,0.0,0 STARLINK-3672,1 51974U 22025U   23165.47669895  .00000458  00000-0  50618-4 0  9999,2 51974  53.0686 196.3010 0001098  90.4051 269.7064 15.05580783 70310,6927.86,95.644,550.486,548.965,0.0
51974.0,STARLINK-3672,PAYLOAD,2023-06-14 19:24:24,15.0558182,0.0001103,53.0686,194.8133,89.8085,270.303,5.8562e-05,5.74e-06,0.0,0 STARLINK-3672,1 51974U 22025U   23165.80861238  .00000574  00000-0  58562-4 0  9996,2 51974  53.0686 194.8133 0001103  89.8085 270.3030 15.05581820 70364,6927.857,95.644,550.486,548.958,0.0
51974.0,STARLINK-3672,PAYLOAD,2023-06-15 01:46:45,15.05582868,0.0001097,53.0681,193.6228,90.506,269.6055,6.2633e-05,6.34e-06,0.0,0 STARLINK-3672,1 51974U 22025U   23166.07414288  .00000634  00000-0  62633-4 0  9996,2 51974  53.0681 193.6228 0001097  90.5060 269.6055 15.05582868 71491,6927.854,95.644,550.479,548.959,0.0
51974.0,STARLINK-3672,PAYLOAD,2023-06-15 08:09:07,15.05585144,0.0001154,53.0677,192.4327,89.428,270.6841,9.5621e-05,1.114e-05,0.0,0 STARLINK-3672,1 51974U 22025U   23166.33967181  .00001114  00000-0  95621-4 0  9997,2 51974  53.0677 192.4327 0001154  89.4280 270.6841 15.05585144 70447,6927.847,95.644,550.512,548.913,0.0
